{"type": "Feature", "properties": {"label": "250 Danbury Rd", "lot": "57-22"}, "geometry": {"type": "Polygon", "coordinates": [[[-73.42661522433526, 41.190970658159884], [-73.42717922050515, 41.191431396454234], [-73.42753711478744, 41.191151549991865], [-73.42753840565837, 41.19115050501553], [-73.42753964967773, 41.191149425198745], [-73.42754084211494, 41.19114831417137], [-73.42754198297936, 41.19114717283379], [-73.42754306988702, 41.19114600120008], [-73.42754410287536, 41.19114480287195], [-73.42754508075237, 41.191143577856444], [-73.42754599995145, 41.1911423270751], [-73.42754686289402, 41.19114105411545], [-73.4275476660134, 41.1911397598991], [-73.42754840930034, 41.1911384435256], [-73.42754909159083, 41.19113710770331], [-73.42754971173964, 41.19113575694119], [-73.42755026973748, 41.191134390338945], [-73.42755076441102, 41.19113300970443], [-73.42755119577897, 41.19113161683837], [-73.42755156147612, 41.19113021355578], [-73.4275518639144, 41.191128802543766], [-73.42755210069119, 41.19112738201561], [-73.42755227067993, 41.191125958281155], [-73.42755237624596, 41.19112452952557], [-73.42755241742655, 41.19112309935038], [-73.42755239066457, 41.19112166957766], [-73.4275523007372, 41.191120241079574], [-73.42755214287659, 41.191118813884245], [-73.42755191953209, 41.19111739428051], [-73.4275516318864, 41.191115981360866], [-73.42755127875678, 41.19111457603276], [-73.42755086136337, 41.191113180990385], [-73.42755038090745, 41.191111797127036], [-73.42754983622507, 41.19111042715104], [-73.42754922852686, 41.191109072856094], [-73.42754856018755, 41.191107733327726], [-73.42754782887911, 41.191106413982425], [-73.42754703936961, 41.19110511479201], [-73.42754618928437, 41.19110383667097], [-73.42754528102597, 41.19110258140595], [-73.42754431699717, 41.19110135078378], [-73.42754329482332, 41.191100145718806], [-73.42739106790256, 41.1909272791068], [-73.42723738650893, 41.19073513034122], [-73.42712898431469, 41.19060582842684], [-73.42661522433526, 41.190970658159884]]]}}